<?xml version="1.0" encoding="UTF-8"?>
<ndm xmlns:xsi="http://www.w3.org/2001/XMLSchema-instance" xsi:noNamespaceSchemaLocation="https://sanaregistry.org/r/ndmxml_unqualified/ndmxml-2.0.0-master-2.0.xsd">
<omm id="CCSDS_OMM_VERS" version="2.0">
<header><CREATION_DATE/><ORIGINATOR/></header><body><segment><metadata><OBJECT_NAME>KUIPER-00061</OBJECT_NAME><OBJECT_ID>2025-134X</OBJECT_ID><CENTER_NAME>EARTH</CENTER_NAME><REF_FRAME>TEME</REF_FRAME><TIME_SYSTEM>UTC</TIME_SYSTEM><MEAN_ELEMENT_THEORY>SGP4</MEAN_ELEMENT_THEORY></metadata><data><meanElements><EPOCH>2025-07-28T14:26:59.716320</EPOCH><MEAN_MOTION>15.35603190</MEAN_MOTION><ECCENTRICITY>.0004893</ECCENTRICITY><INCLINATION>51.8740</INCLINATION><RA_OF_ASC_NODE>161.5422</RA_OF_ASC_NODE><ARG_OF_PERICENTER>233.9121</ARG_OF_PERICENTER><MEAN_ANOMALY>126.1412</MEAN_ANOMALY></meanElements><tleParameters><EPHEMERIS_TYPE>0</EPHEMERIS_TYPE><CLASSIFICATION_TYPE>U</CLASSIFICATION_TYPE><NORAD_CAT_ID>64521</NORAD_CAT_ID><ELEMENT_SET_NO>999</ELEMENT_SET_NO><REV_AT_EPOCH>663</REV_AT_EPOCH><BSTAR>.77919E-3</BSTAR><MEAN_MOTION_DOT>.27106E-3</MEAN_MOTION_DOT><MEAN_MOTION_DDOT>0</MEAN_MOTION_DDOT></tleParameters></data></segment></body></omm>
<omm id="CCSDS_OMM_VERS" version="2.0">
<header><CREATION_DATE/><ORIGINATOR/></header><body><segment><metadata><OBJECT_NAME>KUIPER-00062</OBJECT_NAME><OBJECT_ID>2025-134Y</OBJECT_ID><CENTER_NAME>EARTH</CENTER_NAME><REF_FRAME>TEME</REF_FRAME><TIME_SYSTEM>UTC</TIME_SYSTEM><MEAN_ELEMENT_THEORY>SGP4</MEAN_ELEMENT_THEORY></metadata><data><meanElements><EPOCH>2025-07-28T14:00:01.999872</EPOCH><MEAN_MOTION>15.34014090</MEAN_MOTION><ECCENTRICITY>.0004307</ECCENTRICITY><INCLINATION>51.8767</INCLINATION><RA_OF_ASC_NODE>161.5798</RA_OF_ASC_NODE><ARG_OF_PERICENTER>222.2674</ARG_OF_PERICENTER><MEAN_ANOMALY>65.3311</MEAN_ANOMALY></meanElements><tleParameters><EPHEMERIS_TYPE>0</EPHEMERIS_TYPE><CLASSIFICATION_TYPE>U</CLASSIFICATION_TYPE><NORAD_CAT_ID>64522</NORAD_CAT_ID><ELEMENT_SET_NO>999</ELEMENT_SET_NO><REV_AT_EPOCH>617</REV_AT_EPOCH><BSTAR>-.37875E-1</BSTAR><MEAN_MOTION_DOT>-.1153864E-1</MEAN_MOTION_DOT><MEAN_MOTION_DDOT>0</MEAN_MOTION_DDOT></tleParameters></data></segment></body></omm>
<omm id="CCSDS_OMM_VERS" version="2.0">
<header><CREATION_DATE/><ORIGINATOR/></header><body><segment><metadata><OBJECT_NAME>KUIPER-00063</OBJECT_NAME><OBJECT_ID>2025-134Z</OBJECT_ID><CENTER_NAME>EARTH</CENTER_NAME><REF_FRAME>TEME</REF_FRAME><TIME_SYSTEM>UTC</TIME_SYSTEM><MEAN_ELEMENT_THEORY>SGP4</MEAN_ELEMENT_THEORY></metadata><data><meanElements><EPOCH>2025-07-28T13:59:33.590688</EPOCH><MEAN_MOTION>15.36282431</MEAN_MOTION><ECCENTRICITY>.0002625</ECCENTRICITY><INCLINATION>51.8752</INCLINATION><RA_OF_ASC_NODE>161.4213</RA_OF_ASC_NODE><ARG_OF_PERICENTER>186.1008</ARG_OF_PERICENTER><MEAN_ANOMALY>173.9947</MEAN_ANOMALY></meanElements><tleParameters><EPHEMERIS_TYPE>0</EPHEMERIS_TYPE><CLASSIFICATION_TYPE>U</CLASSIFICATION_TYPE><NORAD_CAT_ID>64523</NORAD_CAT_ID><ELEMENT_SET_NO>999</ELEMENT_SET_NO><REV_AT_EPOCH>664</REV_AT_EPOCH><BSTAR>.70551E-3</BSTAR><MEAN_MOTION_DOT>.2504E-3</MEAN_MOTION_DOT><MEAN_MOTION_DDOT>0</MEAN_MOTION_DDOT></tleParameters></data></segment></body></omm>
<omm id="CCSDS_OMM_VERS" version="2.0">
<header><CREATION_DATE/><ORIGINATOR/></header><body><segment><metadata><OBJECT_NAME>KUIPER-00064</OBJECT_NAME><OBJECT_ID>2025-134AA</OBJECT_ID><CENTER_NAME>EARTH</CENTER_NAME><REF_FRAME>TEME</REF_FRAME><TIME_SYSTEM>UTC</TIME_SYSTEM><MEAN_ELEMENT_THEORY>SGP4</MEAN_ELEMENT_THEORY></metadata><data><meanElements><EPOCH>2025-07-28T13:40:11.226432</EPOCH><MEAN_MOTION>15.37096944</MEAN_MOTION><ECCENTRICITY>.0001459</ECCENTRICITY><INCLINATION>51.8783</INCLINATION><RA_OF_ASC_NODE>161.3330</RA_OF_ASC_NODE><ARG_OF_PERICENTER>132.1962</ARG_OF_PERICENTER><MEAN_ANOMALY>227.9149</MEAN_ANOMALY></meanElements><tleParameters><EPHEMERIS_TYPE>0</EPHEMERIS_TYPE><CLASSIFICATION_TYPE>U</CLASSIFICATION_TYPE><NORAD_CAT_ID>64524</NORAD_CAT_ID><ELEMENT_SET_NO>999</ELEMENT_SET_NO><REV_AT_EPOCH>664</REV_AT_EPOCH><BSTAR>.75028E-3</BSTAR><MEAN_MOTION_DOT>.27377E-3</MEAN_MOTION_DOT><MEAN_MOTION_DDOT>0</MEAN_MOTION_DDOT></tleParameters></data></segment></body></omm>
<omm id="CCSDS_OMM_VERS" version="2.0">
<header><CREATION_DATE/><ORIGINATOR/></header><body><segment><metadata><OBJECT_NAME>KUIPER-00065</OBJECT_NAME><OBJECT_ID>2025-134AB</OBJECT_ID><CENTER_NAME>EARTH</CENTER_NAME><REF_FRAME>TEME</REF_FRAME><TIME_SYSTEM>UTC</TIME_SYSTEM><MEAN_ELEMENT_THEORY>SGP4</MEAN_ELEMENT_THEORY></metadata><data><meanElements><EPOCH>2025-07-28T14:00:01.999872</EPOCH><MEAN_MOTION>15.32640270</MEAN_MOTION><ECCENTRICITY>.0007512</ECCENTRICITY><INCLINATION>51.8709</INCLINATION><RA_OF_ASC_NODE>161.8214</RA_OF_ASC_NODE><ARG_OF_PERICENTER>236.7280</ARG_OF_PERICENTER><MEAN_ANOMALY>277.8569</MEAN_ANOMALY></meanElements><tleParameters><EPHEMERIS_TYPE>0</EPHEMERIS_TYPE><CLASSIFICATION_TYPE>U</CLASSIFICATION_TYPE><NORAD_CAT_ID>64525</NORAD_CAT_ID><ELEMENT_SET_NO>999</ELEMENT_SET_NO><REV_AT_EPOCH>641</REV_AT_EPOCH><BSTAR>-.20429E-1</BSTAR><MEAN_MOTION_DOT>-.611592E-2</MEAN_MOTION_DOT><MEAN_MOTION_DDOT>0</MEAN_MOTION_DDOT></tleParameters></data></segment></body></omm>
<omm id="CCSDS_OMM_VERS" version="2.0">
<header><CREATION_DATE/><ORIGINATOR/></header><body><segment><metadata><OBJECT_NAME>KUIPER-00066</OBJECT_NAME><OBJECT_ID>2025-134AC</OBJECT_ID><CENTER_NAME>EARTH</CENTER_NAME><REF_FRAME>TEME</REF_FRAME><TIME_SYSTEM>UTC</TIME_SYSTEM><MEAN_ELEMENT_THEORY>SGP4</MEAN_ELEMENT_THEORY></metadata><data><meanElements><EPOCH>2025-07-28T13:48:25.910496</EPOCH><MEAN_MOTION>15.36799667</MEAN_MOTION><ECCENTRICITY>.0001125</ECCENTRICITY><INCLINATION>51.8764</INCLINATION><RA_OF_ASC_NODE>161.3726</RA_OF_ASC_NODE><ARG_OF_PERICENTER>162.6705</ARG_OF_PERICENTER><MEAN_ANOMALY>197.4320</MEAN_ANOMALY></meanElements><tleParameters><EPHEMERIS_TYPE>0</EPHEMERIS_TYPE><CLASSIFICATION_TYPE>U</CLASSIFICATION_TYPE><NORAD_CAT_ID>64526</NORAD_CAT_ID><ELEMENT_SET_NO>999</ELEMENT_SET_NO><REV_AT_EPOCH>664</REV_AT_EPOCH><BSTAR>.68674E-3</BSTAR><MEAN_MOTION_DOT>.24775E-3</MEAN_MOTION_DOT><MEAN_MOTION_DDOT>0</MEAN_MOTION_DDOT></tleParameters></data></segment></body></omm>
<omm id="CCSDS_OMM_VERS" version="2.0">
<header><CREATION_DATE/><ORIGINATOR/></header><body><segment><metadata><OBJECT_NAME>KUIPER-00069</OBJECT_NAME><OBJECT_ID>2025-151A</OBJECT_ID><CENTER_NAME>EARTH</CENTER_NAME><REF_FRAME>TEME</REF_FRAME><TIME_SYSTEM>UTC</TIME_SYSTEM><MEAN_ELEMENT_THEORY>SGP4</MEAN_ELEMENT_THEORY></metadata><data><meanElements><EPOCH>2025-07-28T13:35:39.953760</EPOCH><MEAN_MOTION>15.35631936</MEAN_MOTION><ECCENTRICITY>.0005222</ECCENTRICITY><INCLINATION>51.8777</INCLINATION><RA_OF_ASC_NODE>228.2970</RA_OF_ASC_NODE><ARG_OF_PERICENTER>178.6385</ARG_OF_PERICENTER><MEAN_ANOMALY>181.4616</MEAN_ANOMALY></meanElements><tleParameters><EPHEMERIS_TYPE>0</EPHEMERIS_TYPE><CLASSIFICATION_TYPE>U</CLASSIFICATION_TYPE><NORAD_CAT_ID>64816</NORAD_CAT_ID><ELEMENT_SET_NO>999</ELEMENT_SET_NO><REV_AT_EPOCH>306</REV_AT_EPOCH><BSTAR>.26267E-3</BSTAR><MEAN_MOTION_DOT>.8868E-4</MEAN_MOTION_DOT><MEAN_MOTION_DDOT>0</MEAN_MOTION_DDOT></tleParameters></data></segment></body></omm>
<omm id="CCSDS_OMM_VERS" version="2.0">
<header><CREATION_DATE/><ORIGINATOR/></header><body><segment><metadata><OBJECT_NAME>KUIPER-00070</OBJECT_NAME><OBJECT_ID>2025-151B</OBJECT_ID><CENTER_NAME>EARTH</CENTER_NAME><REF_FRAME>TEME</REF_FRAME><TIME_SYSTEM>UTC</TIME_SYSTEM><MEAN_ELEMENT_THEORY>SGP4</MEAN_ELEMENT_THEORY></metadata><data><meanElements><EPOCH>2025-07-28T13:43:35.078592</EPOCH><MEAN_MOTION>15.34770615</MEAN_MOTION><ECCENTRICITY>.0004786</ECCENTRICITY><INCLINATION>51.8778</INCLINATION><RA_OF_ASC_NODE>228.3315</RA_OF_ASC_NODE><ARG_OF_PERICENTER>206.3192</ARG_OF_PERICENTER><MEAN_ANOMALY>153.7551</MEAN_ANOMALY></meanElements><tleParameters><EPHEMERIS_TYPE>0</EPHEMERIS_TYPE><CLASSIFICATION_TYPE>U</CLASSIFICATION_TYPE><NORAD_CAT_ID>64817</NORAD_CAT_ID><ELEMENT_SET_NO>999</ELEMENT_SET_NO><REV_AT_EPOCH>306</REV_AT_EPOCH><BSTAR>-.41025E-2</BSTAR><MEAN_MOTION_DOT>-.138292E-2</MEAN_MOTION_DOT><MEAN_MOTION_DDOT>0</MEAN_MOTION_DDOT></tleParameters></data></segment></body></omm>

</ndm>
